{"epoch":1784799577,"count":18318,"objects":[{"id":"27004","name":"MAROC TUBSAT","type":"PAYLOAD","l1":"1 27004U 01056D   26203.48074487 -.00000019  00000-0  31035-4 0  9997","l2":"2 27004  99.8104  21.0089 0020478  54.0994 330.8625 13.70263745231021"},{"id":"38552","name":"METEOSAT 10 (MSG 3)","type":"PAYLOAD","l1":"1 38552U 12035B   26203.75694669 -.00000007  00000-0  00000-0 0  9997","l2":"2 38552   4.7535  60.8424 0001499  20.0765 132.1319  1.00273198 51216"},{"id":"40069","name":"METEOR M2","type":"PAYLOAD","l1":"1 40069U 14037A   26203.90361094  .00000154  00000-0  89861-4 0  9995","l2":"2 40069  98.5144 178.3817 0004714 300.4254  59.6458 14.21471212624397"},{"id":"40732","name":"METEOSAT 11 (MSG 4)","type":"PAYLOAD","l1":"1 40732U 15034A   26203.90127022  .00000064  00000-0  00000-0 0  9995","l2":"2 40732   3.2876  70.8766 0001966 355.6260 207.8813  1.00274266  7573"},{"id":"44387","name":"METEOR M2-2","type":"PAYLOAD","l1":"1 44387U 19038A   26203.92960854  .00000089  00000-0  58318-4 0  9999","l2":"2 44387  98.9174 191.7465 0000194 346.0818  14.0354 14.24374482366385"},{"id":"51284","name":"LT-1 01A","type":"PAYLOAD","l1":"1 51284U 22007A   26203.94586060  .00000537  00000-0  63825-4 0  9995","l2":"2 51284  97.8110 210.8589 0001623  90.9115 269.2288 14.88415687243792"},{"id":"51822","name":"LT-1 01B","type":"PAYLOAD","l1":"1 51822U 22018A   26203.97946115  .00000560  00000-0  66264-4 0  9995","l2":"2 51822  97.8115 210.8907 0001619  90.9323 269.2079 14.88420885239031"},{"id":"57166","name":"METEOR M2-3","type":"PAYLOAD","l1":"1 57166U 23091A   26203.93220137 -.00000021  00000-0  97437-5 0  9999","l2":"2 57166  98.6063 258.1751 0005052  73.0449 287.1284 14.24049323159602"},{"id":"57624","name":"LUDI TANCE-4 01A","type":"PAYLOAD","l1":"1 57624U 23120A   26203.60240101 -.00000168  00000-0  00000-0 0  9995","l2":"2 57624  15.0824 193.0909 0001705  10.1521  43.5828  1.00275057 10907"},{"id":"59051","name":"METEOR M2-4","type":"PAYLOAD","l1":"1 59051U 24039A   26203.91713157  .00000005  00000-0  21766-4 0  9996","l2":"2 59051  98.7031 162.7702 0008195  69.5846 290.6212 14.22432744124345"}]}